{"fetched_at":"2026-07-10T18:08:19.167Z","source":"https://celestrak.org/NORAD/elements/gp.php?NAME=KINEIS&FORMAT=JSON","constellation":"kineis","records":[{"OBJECT_NAME":"KINEIS-1B","OBJECT_ID":"2024-114A","EPOCH":"2026-07-10T07:10:57.304704","CLASSIFICATION_TYPE":"U","MEAN_MOTION":14.80662528,"ECCENTRICITY":0.00033012,"INCLINATION":97.9827,"RA_OF_ASC_NODE":215.3744,"ARG_OF_PERICENTER":49.1024,"MEAN_ANOMALY":311.0474,"EPHEMERIS_TYPE":0,"NORAD_CAT_ID":60079,"ELEMENT_SET_NO":999,"REV_AT_EPOCH":11082,"BSTAR":0.000069425534,"MEAN_MOTION_DOT":0.00000481,"MEAN_MOTION_DDOT":0},{"OBJECT_NAME":"KINEIS-1C","OBJECT_ID":"2024-114C","EPOCH":"2026-07-10T07:59:23.659008","CLASSIFICATION_TYPE":"U","MEAN_MOTION":14.80664413,"ECCENTRICITY":0.00025364,"INCLINATION":97.984,"RA_OF_ASC_NODE":215.2621,"ARG_OF_PERICENTER":101.0052,"MEAN_ANOMALY":259.1445,"EPHEMERIS_TYPE":0,"NORAD_CAT_ID":60081,"ELEMENT_SET_NO":999,"REV_AT_EPOCH":11080,"BSTAR":0.000065808971,"MEAN_MOTION_DOT":0.00000453,"MEAN_MOTION_DDOT":0},{"OBJECT_NAME":"KINEIS-1D","OBJECT_ID":"2024-114D","EPOCH":"2026-07-10T06:59:18.789216","CLASSIFICATION_TYPE":"U","MEAN_MOTION":14.76358715,"ECCENTRICITY":0.00028894,"INCLINATION":97.9877,"RA_OF_ASC_NODE":211.1743,"ARG_OF_PERICENTER":105.7763,"MEAN_ANOMALY":254.3766,"EPHEMERIS_TYPE":0,"NORAD_CAT_ID":60082,"ELEMENT_SET_NO":999,"REV_AT_EPOCH":11053,"BSTAR":0.000060362557,"MEAN_MOTION_DOT":0.00000368,"MEAN_MOTION_DDOT":0},{"OBJECT_NAME":"KINEIS-1E","OBJECT_ID":"2024-114E","EPOCH":"2026-07-10T06:47:51.273312","CLASSIFICATION_TYPE":"U","MEAN_MOTION":14.80688913,"ECCENTRICITY":0.00039691,"INCLINATION":97.8943,"RA_OF_ASC_NODE":214.3364,"ARG_OF_PERICENTER":119.7442,"MEAN_ANOMALY":240.4166,"EPHEMERIS_TYPE":0,"NORAD_CAT_ID":60083,"ELEMENT_SET_NO":999,"REV_AT_EPOCH":11080,"BSTAR":0.000079829876,"MEAN_MOTION_DOT":0.00000562,"MEAN_MOTION_DDOT":0},{"OBJECT_NAME":"KINEIS-1A","OBJECT_ID":"2024-114F","EPOCH":"2026-07-10T07:35:57.407424","CLASSIFICATION_TYPE":"U","MEAN_MOTION":14.80677639,"ECCENTRICITY":0.00055743,"INCLINATION":97.8916,"RA_OF_ASC_NODE":214.4646,"ARG_OF_PERICENTER":74.1543,"MEAN_ANOMALY":286.0284,"EPHEMERIS_TYPE":0,"NORAD_CAT_ID":60084,"ELEMENT_SET_NO":999,"REV_AT_EPOCH":11081,"BSTAR":0.000070652846,"MEAN_MOTION_DOT":0.00000491,"MEAN_MOTION_DDOT":0},{"OBJECT_NAME":"KINEIS-3C","OBJECT_ID":"2024-172A","EPOCH":"2026-07-08T19:41:03.998688","CLASSIFICATION_TYPE":"U","MEAN_MOTION":14.72355818,"ECCENTRICITY":0.00027496,"INCLINATION":98.0431,"RA_OF_ASC_NODE":279.49,"ARG_OF_PERICENTER":92.2536,"MEAN_ANOMALY":267.8986,"EPHEMERIS_TYPE":0,"NORAD_CAT_ID":61220,"ELEMENT_SET_NO":999,"REV_AT_EPOCH":9625,"BSTAR":0.00019489517,"MEAN_MOTION_DOT":0.00001184,"MEAN_MOTION_DDOT":0},{"OBJECT_NAME":"KINEIS-3D","OBJECT_ID":"2024-172B","EPOCH":"2026-07-08T19:31:21.430272","CLASSIFICATION_TYPE":"U","MEAN_MOTION":14.72360142,"ECCENTRICITY":0.00026129,"INCLINATION":98.0427,"RA_OF_ASC_NODE":279.4937,"ARG_OF_PERICENTER":92.0165,"MEAN_ANOMALY":268.1342,"EPHEMERIS_TYPE":0,"NORAD_CAT_ID":61221,"ELEMENT_SET_NO":999,"REV_AT_EPOCH":9653,"BSTAR":0.0001825622,"MEAN_MOTION_DOT":0.00001106,"MEAN_MOTION_DDOT":0},{"OBJECT_NAME":"KINEIS-3E","OBJECT_ID":"2024-172C","EPOCH":"2026-07-10T05:22:01.868736","CLASSIFICATION_TYPE":"U","MEAN_MOTION":14.72330048,"ECCENTRICITY":0.00018391,"INCLINATION":98.0428,"RA_OF_ASC_NODE":280.8705,"ARG_OF_PERICENTER":91.6471,"MEAN_ANOMALY":268.4947,"EPHEMERIS_TYPE":0,"NORAD_CAT_ID":61222,"ELEMENT_SET_NO":999,"REV_AT_EPOCH":9674,"BSTAR":0.00018970967,"MEAN_MOTION_DOT":0.0000115,"MEAN_MOTION_DDOT":0},{"OBJECT_NAME":"KINEIS-3A","OBJECT_ID":"2024-172D","EPOCH":"2026-07-10T04:58:14.210688","CLASSIFICATION_TYPE":"U","MEAN_MOTION":14.72299786,"ECCENTRICITY":0.00025119,"INCLINATION":98.0425,"RA_OF_ASC_NODE":280.9525,"ARG_OF_PERICENTER":52.0269,"MEAN_ANOMALY":308.1165,"EPHEMERIS_TYPE":0,"NORAD_CAT_ID":61223,"ELEMENT_SET_NO":999,"REV_AT_EPOCH":9616,"BSTAR":0.00018930848,"MEAN_MOTION_DOT":0.00001147,"MEAN_MOTION_DDOT":0},{"OBJECT_NAME":"KINEIS-3B","OBJECT_ID":"2024-172E","EPOCH":"2026-07-10T04:33:09.069984","CLASSIFICATION_TYPE":"U","MEAN_MOTION":14.72286063,"ECCENTRICITY":0.00020078,"INCLINATION":98.0418,"RA_OF_ASC_NODE":280.9579,"ARG_OF_PERICENTER":39.6164,"MEAN_ANOMALY":320.5189,"EPHEMERIS_TYPE":0,"NORAD_CAT_ID":61224,"ELEMENT_SET_NO":999,"REV_AT_EPOCH":9673,"BSTAR":0.00018982563,"MEAN_MOTION_DOT":0.0000115,"MEAN_MOTION_DDOT":0},{"OBJECT_NAME":"KINEIS-5C","OBJECT_ID":"2024-219A","EPOCH":"2026-07-10T07:16:08.514048","CLASSIFICATION_TYPE":"U","MEAN_MOTION":14.72310862,"ECCENTRICITY":0.00037519,"INCLINATION":97.9061,"RA_OF_ASC_NODE":349.5156,"ARG_OF_PERICENTER":188.2624,"MEAN_ANOMALY":171.8523,"EPHEMERIS_TYPE":0,"NORAD_CAT_ID":62081,"ELEMENT_SET_NO":999,"REV_AT_EPOCH":8715,"BSTAR":0.00007060133,"MEAN_MOTION_DOT":0.00000398,"MEAN_MOTION_DDOT":0},{"OBJECT_NAME":"KINEIS-5D","OBJECT_ID":"2024-219B","EPOCH":"2026-07-10T06:17:19.214016","CLASSIFICATION_TYPE":"U","MEAN_MOTION":14.7248816,"ECCENTRICITY":0.00048733,"INCLINATION":97.9174,"RA_OF_ASC_NODE":349.5356,"ARG_OF_PERICENTER":182.3252,"MEAN_ANOMALY":177.7934,"EPHEMERIS_TYPE":0,"NORAD_CAT_ID":62082,"ELEMENT_SET_NO":999,"REV_AT_EPOCH":8715,"BSTAR":0.000099627382,"MEAN_MOTION_DOT":0.00000584,"MEAN_MOTION_DDOT":0},{"OBJECT_NAME":"KINEIS-5E","OBJECT_ID":"2024-219C","EPOCH":"2026-07-10T06:42:03.280032","CLASSIFICATION_TYPE":"U","MEAN_MOTION":14.7229557,"ECCENTRICITY":0.00063648,"INCLINATION":97.9019,"RA_OF_ASC_NODE":349.5895,"ARG_OF_PERICENTER":179.4394,"MEAN_ANOMALY":180.6822,"EPHEMERIS_TYPE":0,"NORAD_CAT_ID":62083,"ELEMENT_SET_NO":999,"REV_AT_EPOCH":8716,"BSTAR":0.000065593075,"MEAN_MOTION_DOT":0.00000366,"MEAN_MOTION_DDOT":0},{"OBJECT_NAME":"KINEIS-5A","OBJECT_ID":"2024-219D","EPOCH":"2026-07-10T06:10:25.720032","CLASSIFICATION_TYPE":"U","MEAN_MOTION":14.7223003,"ECCENTRICITY":0.00033553,"INCLINATION":97.8959,"RA_OF_ASC_NODE":349.8521,"ARG_OF_PERICENTER":219.2163,"MEAN_ANOMALY":140.8802,"EPHEMERIS_TYPE":0,"NORAD_CAT_ID":62084,"ELEMENT_SET_NO":999,"REV_AT_EPOCH":8716,"BSTAR":0.0001305763,"MEAN_MOTION_DOT":0.00000776,"MEAN_MOTION_DDOT":0},{"OBJECT_NAME":"KINEIS-5B","OBJECT_ID":"2024-219E","EPOCH":"2026-07-10T06:18:56.289600","CLASSIFICATION_TYPE":"U","MEAN_MOTION":14.78379251,"ECCENTRICITY":0.00021493,"INCLINATION":98.0085,"RA_OF_ASC_NODE":354.9662,"ARG_OF_PERICENTER":155.3178,"MEAN_ANOMALY":204.8136,"EPHEMERIS_TYPE":0,"NORAD_CAT_ID":62085,"ELEMENT_SET_NO":999,"REV_AT_EPOCH":8741,"BSTAR":0.00010194662,"MEAN_MOTION_DOT":0.0000069,"MEAN_MOTION_DDOT":0},{"OBJECT_NAME":"KINEIS-2C","OBJECT_ID":"2025-028B","EPOCH":"2026-07-10T03:20:15.475200","CLASSIFICATION_TYPE":"U","MEAN_MOTION":14.73420253,"ECCENTRICITY":0.00038383,"INCLINATION":98.1232,"RA_OF_ASC_NODE":245.5572,"ARG_OF_PERICENTER":173.0563,"MEAN_ANOMALY":187.0698,"EPHEMERIS_TYPE":0,"NORAD_CAT_ID":62929,"ELEMENT_SET_NO":999,"REV_AT_EPOCH":7599,"BSTAR":0.00015891277,"MEAN_MOTION_DOT":0.00000979,"MEAN_MOTION_DDOT":0}]}
