KINEIS-1B               
1 60079U 24114A   26191.29927436  .00000481  00000+0  69426-4 0  9998
2 60079  97.9827 215.3744 0003301  49.1024 311.0474 14.80662528110823
KINEIS-1C               
1 60081U 24114C   26191.33291272  .00000453  00000+0  65809-4 0  9998
2 60081  97.9840 215.2621 0002536 101.0052 259.1445 14.80664413110805
KINEIS-1D               
1 60082U 24114D   26191.29118969  .00000368  00000+0  60363-4 0  9990
2 60082  97.9877 211.1743 0002889 105.7763 254.3766 14.76358715110530
KINEIS-1E               
1 60083U 24114E   26191.28323233  .00000562  00000+0  79830-4 0  9997
2 60083  97.8943 214.3364 0003969 119.7442 240.4166 14.80688913110808
KINEIS-1A               
1 60084U 24114F   26191.31663666  .00000491  00000+0  70653-4 0  9994
2 60084  97.8916 214.4646 0005574  74.1543 286.0284 14.80677639110814
KINEIS-3C               
1 61220U 24172A   26189.82018517  .00001184  00000+0  19490-3 0  9994
2 61220  98.0431 279.4900 0002749  92.2536 267.8986 14.72355818 96250
KINEIS-3D               
1 61221U 24172B   26189.81344248  .00001106  00000+0  18256-3 0  9990
2 61221  98.0427 279.4937 0002612  92.0165 268.1342 14.72360142 96538
KINEIS-3E               
1 61222U 24172C   26191.22363274  .00001150  00000+0  18971-3 0  9992
2 61222  98.0428 280.8705 0001839  91.6471 268.4947 14.72330048 96743
KINEIS-3A               
1 61223U 24172D   26191.20710892  .00001147  00000+0  18931-3 0  9995
2 61223  98.0425 280.9525 0002511  52.0269 308.1165 14.72299786 96169
KINEIS-3B               
1 61224U 24172E   26191.18968831  .00001150  00000+0  18983-3 0  9992
2 61224  98.0418 280.9579 0002007  39.6164 320.5189 14.72286063 96737
KINEIS-5C               
1 62081U 24219A   26191.30287632  .00000398  00000+0  70601-4 0  9992
2 62081  97.9061 349.5156 0003751 188.2624 171.8523 14.72310862 87153
KINEIS-5D               
1 62082U 24219B   26191.26202794  .00000584  00000+0  99627-4 0  9990
2 62082  97.9174 349.5356 0004873 182.3252 177.7934 14.72488160 87157
KINEIS-5E               
1 62083U 24219C   26191.27920463  .00000366  00000+0  65593-4 0  9995
2 62083  97.9019 349.5895 0006364 179.4394 180.6822 14.72295570 87166
KINEIS-5A               
1 62084U 24219D   26191.25724213  .00000776  00000+0  13058-3 0  9992
2 62084  97.8959 349.8521 0003355 219.2163 140.8802 14.72230030 87168
KINEIS-5B               
1 62085U 24219E   26191.26315150  .00000690  00000+0  10195-3 0  9994
2 62085  98.0085 354.9662 0002149 155.3178 204.8136 14.78379251 87415
KINEIS-2C               
1 62929U 25028B   26191.13906800  .00000979  00000+0  15891-3 0  9992
2 62929  98.1232 245.5572 0003838 173.0563 187.0698 14.73420253 75992
